IRIDIUM 106             
1 41917U 17003A   25274.25428473  .00000099  00000+0  28439-4 0  9995
2 41917  86.4039 196.6974 0002438  72.8070 287.3393 14.34218566456096
IRIDIUM 103             
1 41918U 17003B   25274.24159740  .00000363  00000+0  12254-3 0  9994
2 41918  86.4038 196.6037 0002587  88.3409 271.8083 14.34218905456113
IRIDIUM 109             
1 41919U 17003C   25274.24794012  .00000330  00000+0  11076-3 0  9997
2 41919  86.4038 196.6555 0002213  86.8313 273.3136 14.34220056456084
IRIDIUM 102             
1 41920U 17003D   25274.21621886  .00000764  00000+0  26558-3 0  9996
2 41920  86.4034 196.5981 0002165  83.3237 276.8206 14.34219314456167
IRIDIUM 105             
1 41921U 17003E   25274.25684734  .00000684  00000+0  23732-3 0  9994
2 41921  86.4036 165.0970 0002256  86.0454 274.0999 14.34221500458027
IRIDIUM 104             
1 41922U 17003F   25274.22891321  .00000656  00000+0  22724-3 0  9993
2 41922  86.4036 196.6311 0002317  93.9978 266.1483 14.34219388456156
IRIDIUM 114             
1 41923U 17003G   25274.23525494  .00000834  00000+0  29067-3 0  9995
2 41923  86.4035 196.6130 0002405  85.4845 274.6625 14.34219470456134
IRIDIUM 108             
1 41924U 17003H   25274.12400681  .00000266  00000+0  88061-4 0  9993
2 41924  86.4034 165.0470 0002024  80.0569 280.0855 14.34219917457977
